start=new Date('2022-02-21T00:00:00.000Z').valueOf();
sats=[{"EPHEMERIS_TYPE":"0","ECCENTRICITY":"0.00016030","MEAN_ELEMENT_THEORY":"SGP4","EPOCH":"2022-02-20T18:45:22.883040","CLASSIFICATION_TYPE":"U","COUNTRY_CODE":"US","OBJECT_NAME":"STARLINK-1333","TIME_SYSTEM":"UTC","APOAPSIS":"548.321","PERIAPSIS":"546.101","RCS_SIZE":"LARGE","RA_OF_ASC_NODE":"241.2005","ARG_OF_PERICENTER":"72.4219","SEMIMAJOR_AXIS":"6925.346","DECAY_DATE":null,"MEAN_MOTION_DDOT":"0.0000000000000","SITE":"AFETR","CENTER_NAME":"EARTH","MEAN_MOTION_DOT":"-0.00000593","LAUNCH_DATE":"2020-04-22","NORAD_CAT_ID":"45580","OBJECT_TYPE":"PAYLOAD","GP_ID":"196510700","PERIOD":"95.592","INCLINATION":"53.0537","MEAN_ANOMALY":"287.6944","FILE":"3310556","TLE_LINE1":"1 45580U 20025BB  22051.78151485 -.00000593  00000-0 -20886-4 0  9997","MEAN_MOTION":"15.06400718","REF_FRAME":"TEME","TLE_LINE2":"2 45580  53.0537 241.2005 0001603  72.4219 287.6944 15.06400718102618","ELEMENT_SET_NO":"999","BSTAR":"-0.00002088600000","OBJECT_ID":"2020-025BB","REV_AT_EPOCH":"10261"},{"FILE":"3310556","INCLINATION":"53.0535","MEAN_ANOMALY":"292.8810","MEAN_MOTION":"15.06400723","TLE_LINE1":"1 45581U 20025BC  22051.85246714 -.00000182  00000-0  66836-5 0  9995","TLE_LINE2":"2 45581  53.0535 230.8865 0001629  67.2351 292.8810 15.06400723102764","REF_FRAME":"TEME","REV_AT_EPOCH":"10276","OBJECT_ID":"2020-025BC","ELEMENT_SET_NO":"999","BSTAR":"0.00000668360000","LAUNCH_DATE":"2020-04-22","OBJECT_TYPE":"PAYLOAD","NORAD_CAT_ID":"45581","GP_ID":"196510952","PERIOD":"95.592","ARG_OF_PERICENTER":"67.2351","RA_OF_ASC_NODE":"230.8865","RCS_SIZE":"LARGE","SEMIMAJOR_AXIS":"6925.346","DECAY_DATE":null,"SITE":"AFETR","MEAN_MOTION_DDOT":"0.0000000000000","MEAN_MOTION_DOT":"-0.00000182","CENTER_NAME":"EARTH","ECCENTRICITY":"0.00016290","MEAN_ELEMENT_THEORY":"SGP4","EPHEMERIS_TYPE":"0","EPOCH":"2022-02-20T20:27:33.160896","OBJECT_NAME":"STARLINK-1335","TIME_SYSTEM":"UTC","COUNTRY_CODE":"US","CLASSIFICATION_TYPE":"U","PERIAPSIS":"546.083","APOAPSIS":"548.339"},{"CLASSIFICATION_TYPE":"U","COUNTRY_CODE":"US","TIME_SYSTEM":"UTC","OBJECT_NAME":"STARLINK-1337","PERIAPSIS":"546.165","APOAPSIS":"548.316","EPHEMERIS_TYPE":"0","ECCENTRICITY":"0.00015530","MEAN_ELEMENT_THEORY":"SGP4","EPOCH":"2022-02-20T20:59:24.473184","SITE":"AFETR","MEAN_MOTION_DDOT":"0.0000000000000","CENTER_NAME":"EARTH","MEAN_MOTION_DOT":"-0.00000010","RA_OF_ASC_NODE":"230.7806","RCS_SIZE":"LARGE","ARG_OF_PERICENTER":"76.0764","DECAY_DATE":null,"SEMIMAJOR_AXIS":"6925.375","GP_ID":"196511674","PERIOD":"95.593","LAUNCH_DATE":"2020-04-22","NORAD_CAT_ID":"45582","OBJECT_TYPE":"PAYLOAD","REF_FRAME":"TEME","TLE_LINE2":"2 45582  53.0525 230.7806 0001553  76.0764 284.0397 15.06391289102769","ELEMENT_SET_NO":"999","BSTAR":"0.00001824000000","REV_AT_EPOCH":"10276","OBJECT_ID":"2020-025BD","INCLINATION":"53.0525","MEAN_ANOMALY":"284.0397","FILE":"3310556","MEAN_MOTION":"15.06391289","TLE_LINE1":"1 45582U 20025BD  22051.87458881 -.00000010  00000-0  18240-4 0  9993"},{"GP_ID":"196509949","PERIOD":"95.593","LAUNCH_DATE":"2020-04-22","OBJECT_TYPE":"PAYLOAD","NORAD_CAT_ID":"45583","TLE_LINE2":"2 45583  53.0533 230.8642 0001816  63.3216 296.7958 15.06393506102768","REF_FRAME":"TEME","OBJECT_ID":"2020-025BE","REV_AT_EPOCH":"10276","ELEMENT_SET_NO":"999","BSTAR":"0.00001101600000","FILE":"3310556","INCLINATION":"53.0533","MEAN_ANOMALY":"296.7958","TLE_LINE1":"1 45583U 20025BE  22051.85615567 -.00000118  00000-0  11016-4 0  9991","MEAN_MOTION":"15.06393506","TIME_SYSTEM":"UTC","OBJECT_NAME":"STARLINK-1340","CLASSIFICATION_TYPE":"U","COUNTRY_CODE":"US","APOAPSIS":"548.491","PERIAPSIS":"545.976","MEAN_ELEMENT_THEORY":"SGP4","ECCENTRICITY":"0.00018160","EPHEMERIS_TYPE":"0","EPOCH":"2022-02-20T20:32:51.849888","MEAN_MOTION_DDOT":"0.0000000000000","SITE":"AFETR","MEAN_MOTION_DOT":"-0.00000118","CENTER_NAME":"EARTH","ARG_OF_PERICENTER":"63.3216","RCS_SIZE":"LARGE","RA_OF_ASC_NODE":"230.8642","DECAY_DATE":null,"SEMIMAJOR_AXIS":"6925.368"},{"OBJECT_NAME":"STARLINK-1343","TIME_SYSTEM":"UTC","COUNTRY_CODE":"US","CLASSIFICATION_TYPE":"U","PERIAPSIS":"546.195","APOAPSIS":"548.213","ECCENTRICITY":"0.00014570","MEAN_ELEMENT_THEORY":"SGP4","EPHEMERIS_TYPE":"0","EPOCH":"2022-02-20T20:16:55.473600","SITE":"AFETR","MEAN_MOTION_DDOT":"0.0000000000000","MEAN_MOTION_DOT":"0.00001565","CENTER_NAME":"EARTH","ARG_OF_PERICENTER":"83.1958","RA_OF_ASC_NODE":"230.9090","RCS_SIZE":"LARGE","DECAY_DATE":null,"SEMIMAJOR_AXIS":"6925.339","GP_ID":"196510200","PERIOD":"95.592","LAUNCH_DATE":"2020-04-22","OBJECT_TYPE":"PAYLOAD","NORAD_CAT_ID":"45584","TLE_LINE2":"2 45584  53.0557 230.9090 0001457  83.1958 276.9197 15.06403132102769","REF_FRAME":"TEME","REV_AT_EPOCH":"10276","OBJECT_ID":"2020-025BF","ELEMENT_SET_NO":"999","BSTAR":"0.00012394000000","FILE":"3310556","MEAN_ANOMALY":"276.9197","INCLINATION":"53.0557","MEAN_MOTION":"15.06403132","TLE_LINE1":"1 45584U 20025BF  22051.84508650  .00001565  00000-0  12394-3 0  9990"},{"OBJECT_TYPE":"PAYLOAD","NORAD_CAT_ID":"45586","LAUNCH_DATE":"2020-04-22","PERIOD":"95.592","GP_ID":"196511453","MEAN_MOTION":"15.06401514","TLE_LINE1":"1 45586U 20025BH  22051.86720639  .00001913  00000-0  14731-3 0  9991","FILE":"3310556","INCLINATION":"53.0538","MEAN_ANOMALY":"300.3091","REV_AT_EPOCH":"10275","OBJECT_ID":"2020-025BH","ELEMENT_SET_NO":"999","BSTAR":"0.00014731000000","TLE_LINE2":"2 45586  53.0538 230.8215 0002001  59.8096 300.3091 15.06401514102753","REF_FRAME":"TEME","EPOCH":"2022-02-20T20:48:46.632096","ECCENTRICITY":"0.00020010","MEAN_ELEMENT_THEORY":"SGP4","EPHEMERIS_TYPE":"0","PERIAPSIS":"545.823","APOAPSIS":"548.595","TIME_SYSTEM":"UTC","OBJECT_NAME":"STARLINK-1347","CLASSIFICATION_TYPE":"U","COUNTRY_CODE":"US","SEMIMAJOR_AXIS":"6925.344","DECAY_DATE":null,"ARG_OF_PERICENTER":"59.8096","RA_OF_ASC_NODE":"230.8215","RCS_SIZE":"LARGE","MEAN_MOTION_DOT":"0.00001913","CENTER_NAME":"EARTH","SITE":"AFETR","MEAN_MOTION_DDOT":"0.0000000000000"},{"FILE":"3310556","MEAN_ANOMALY":"287.7184","INCLINATION":"53.0537","MEAN_MOTION":"15.06408389","TLE_LINE1":"1 45587U 20025BJ  22051.77137191  .00003542  00000-0  25649-3 0  9997","TLE_LINE2":"2 45587  53.0537 231.2444 0001653  72.3985 287.7184 15.06408389102759","REF_FRAME":"TEME","REV_AT_EPOCH":"10275","OBJECT_ID":"2020-025BJ","ELEMENT_SET_NO":"999","BSTAR":"0.00025649000000","LAUNCH_DATE":"2020-04-22","OBJECT_TYPE":"PAYLOAD","NORAD_CAT_ID":"45587","GP_ID":"196511174","PERIOD":"95.592","ARG_OF_PERICENTER":"72.3985","RA_OF_ASC_NODE":"231.2444","RCS_SIZE":"LARGE","SEMIMAJOR_AXIS":"6925.323","DECAY_DATE":null,"SITE":"AFETR","MEAN_MOTION_DDOT":"0.0000000000000","MEAN_MOTION_DOT":"0.00003542","CENTER_NAME":"EARTH","MEAN_ELEMENT_THEORY":"SGP4","ECCENTRICITY":"0.00016530","EPHEMERIS_TYPE":"0","EPOCH":"2022-02-20T18:30:46.533024","TIME_SYSTEM":"UTC","OBJECT_NAME":"STARLINK-1349","COUNTRY_CODE":"US","CLASSIFICATION_TYPE":"U","PERIAPSIS":"546.043","APOAPSIS":"548.333"},{"FILE":"3310556","INCLINATION":"53.0540","MEAN_ANOMALY":"278.1404","TLE_LINE1":"1 45588U 20025BK  22051.88195771 -.00000645  00000-0 -24384-4 0  9997","MEAN_MOTION":"15.06396592","TLE_LINE2":"2 45588  53.0540 230.7635 0001577  81.9764 278.1404 15.06396592102768","REF_FRAME":"TEME","OBJECT_ID":"2020-025BK","REV_AT_EPOCH":"10276","ELEMENT_SET_NO":"999","BSTAR":"-0.00002438400000","LAUNCH_DATE":"2020-04-22","OBJECT_TYPE":"PAYLOAD","NORAD_CAT_ID":"45588","GP_ID":"196510450","PERIOD":"95.592","ARG_OF_PERICENTER":"81.9764","RCS_SIZE":"LARGE","RA_OF_ASC_NODE":"230.7635","DECAY_DATE":null,"SEMIMAJOR_AXIS":"6925.359","MEAN_MOTION_DDOT":"0.0000000000000","SITE":"AFETR","MEAN_MOTION_DOT":"-0.00000645","CENTER_NAME":"EARTH","ECCENTRICITY":"0.00015770","MEAN_ELEMENT_THEORY":"SGP4","EPHEMERIS_TYPE":"0","EPOCH":"2022-02-20T21:10:01.146144","TIME_SYSTEM":"UTC","OBJECT_NAME":"STARLINK-1360","CLASSIFICATION_TYPE":"U","COUNTRY_CODE":"US","APOAPSIS":"548.316","PERIAPSIS":"546.132"},{"SEMIMAJOR_AXIS":"6925.382","DECAY_DATE":null,"RCS_SIZE":"LARGE","RA_OF_ASC_NODE":"230.7733","ARG_OF_PERICENTER":"75.8316","CENTER_NAME":"EARTH","MEAN_MOTION_DOT":"-0.00000450","MEAN_MOTION_DDOT":"0.0000000000000","SITE":"AFETR","EPOCH":"2022-02-20T21:04:43.091328","EPHEMERIS_TYPE":"0","ECCENTRICITY":"0.00013130","MEAN_ELEMENT_THEORY":"SGP4","APOAPSIS":"548.156","PERIAPSIS":"546.337","CLASSIFICATION_TYPE":"U","COUNTRY_CODE":"US","TIME_SYSTEM":"UTC","OBJECT_NAME":"STARLINK-1364","TLE_LINE1":"1 45589U 20025BL  22051.87827652 -.00000450  00000-0 -11317-4 0  9993","MEAN_MOTION":"15.06389180","INCLINATION":"53.0535","MEAN_ANOMALY":"284.2819","FILE":"3310556","ELEMENT_SET_NO":"999","BSTAR":"-0.00001131700000","OBJECT_ID":"2020-025BL","REV_AT_EPOCH":"10276","REF_FRAME":"TEME","TLE_LINE2":"2 45589  53.0535 230.7733 0001313  75.8316 284.2819 15.06389180102768","NORAD_CAT_ID":"45589","OBJECT_TYPE":"PAYLOAD","LAUNCH_DATE":"2020-04-22","PERIOD":"95.593","GP_ID":"196510701"},{"CENTER_NAME":"EARTH","MEAN_MOTION_DOT":"0.00000118","SITE":"AFETR","MEAN_MOTION_DDOT":"0.0000000000000","SEMIMAJOR_AXIS":"6925.329","DECAY_DATE":null,"RA_OF_ASC_NODE":"260.7076","RCS_SIZE":"LARGE","ARG_OF_PERICENTER":"71.7208","PERIAPSIS":"546.123","APOAPSIS":"548.265","COUNTRY_CODE":"US","CLASSIFICATION_TYPE":"U","TIME_SYSTEM":"UTC","OBJECT_NAME":"STARLINK-1365","EPOCH":"2022-02-20T21:27:15.482016","EPHEMERIS_TYPE":"0","ECCENTRICITY":"0.00015470","MEAN_ELEMENT_THEORY":"SGP4","ELEMENT_SET_NO":"999","BSTAR":"0.00002684300000","REV_AT_EPOCH":"10236","OBJECT_ID":"2020-025BM","REF_FRAME":"TEME","TLE_LINE2":"2 45590  53.0539 260.7076 0001547  71.7208 288.3949 15.06406430102364","MEAN_MOTION":"15.06406430","TLE_LINE1":"1 45590U 20025BM  22051.89392919  .00000118  00000-0  26843-4 0  9999","INCLINATION":"53.0539","MEAN_ANOMALY":"288.3949","FILE":"3310556","PERIOD":"95.592","GP_ID":"196510953","NORAD_CAT_ID":"45590","OBJECT_TYPE":"PAYLOAD","LAUNCH_DATE":"2020-04-22"}];
